STARLINK-4089           
1 52831U 22062B   23273.44946525  .00001501  00000+0  11235-3 0  9998
2 52831  53.2172  75.0517 0001467  81.1263 278.9895 15.08841436 71742
STARLINK-4083           
1 52832U 22062C   23272.78338633  .00007305  00000+0  47663-3 0  9992
2 52832  53.2178  78.0378 0001500  75.9792 284.1367 15.08834145 71138
STARLINK-4086           
1 52833U 22062D   23274.17073953  .00012145  00000+0  77960-3 0  9990
2 52833  53.2163  71.8114 0001182  72.3847 287.7274 15.08852080 71347
STARLINK-4108           
1 52834U 22062E   23273.76594269  .00000877  00000+0  73182-4 0  9995
2 52834  53.2180  73.6301 0001187  86.6910 273.4218 15.08838125 71286
STARLINK-4080           
1 52835U 22062F   23273.76226076  .00001271  00000+0  97892-4 0  9997
2 52835  53.2171  73.6495 0001198  78.2515 281.8611 15.08845864 71289
STARLINK-4043           
1 52836U 22062G   23274.15601890  .00001162  00000+0  91048-4 0  9999
2 52836  53.2181  71.8801 0001392  81.1536 278.9613 15.08845204 71348
STARLINK-4036           
1 52837U 22062H   23274.14866440 -.00000840  00000+0 -34674-4 0  9999
2 52837  53.2185  71.9141 0001483  92.2127 267.9035 15.08833261 71347
STARLINK-4092           
1 52838U 22062J   23274.15233493  .00000580  00000+0  54535-4 0  9994
2 52838  53.2167  71.8866 0001272  90.1348 269.9790 15.08844675 71834
STARLINK-4048           
1 52839U 22062K   23273.41266032  .00000918  00000+0  75735-4 0  9998
2 52839  53.2196  75.2251 0001455  87.6574 272.4585 15.08839928 71722
STARLINK-4049           
1 52840U 22062L   23273.74753871 -.00000035  00000+0  15906-4 0  9993
2 52840  53.2171  73.7175 0001271  84.7147 275.3990 15.08842265 71770
STARLINK-4065           
1 52841U 22062M   23273.73282035  .00000711  00000+0  62756-4 0  9997
2 52841  53.2166  73.7783 0001336  97.4442 262.6702 15.08840860 71770
STARLINK-4046           
1 52842U 22062N   23273.91667824  .00044536  00000+0  26779-2 0  9997
2 52842  53.2159  72.9320 0001381  79.2492  93.1472 15.10450661 71808
STARLINK-4188           
1 52843U 22062P   23273.72546341  .00012947  00000+0  82997-3 0  9993
2 52843  53.2161  73.8128 0001543  89.0752 271.0416 15.08842636 71771
STARLINK-4208           
1 52844U 22062Q   23273.74017648  .00000859  00000+0  72036-4 0  9992
2 52844  53.2164  73.7479 0001295  87.0028 273.1112 15.08846620 71774
STARLINK-4168           
1 52845U 22062R   23273.72915437  .00002868  00000+0  19818-3 0  9994
2 52845  53.2163  73.8660 0001352  84.4142 275.7005 15.08843074 71778
STARLINK-4212           
1 52846U 22062S   23273.73009821 -.00000212  00000+0  47905-5 0  9999
2 52846  53.2179  73.8009 0001364  90.6357 269.4792 15.08843451 71775
STARLINK-4206           
1 52847U 22062T   23274.18177881  .00001146  00000+0  90077-4 0  9995
2 52847  53.2181  71.7662 0001437  91.8298 268.2858 15.08844149 71842
STARLINK-4202           
1 52848U 22062U   23273.73650182 -.00000178  00000+0  69280-5 0  9994
2 52848  53.2176  73.7656 0001357  91.4114 268.7034 15.08840473 71775
STARLINK-4197           
1 52849U 22062V   23273.71165631  .00001340  00000+0  10227-3 0  9999
2 52849  53.2174  63.8768 0001304  79.7433 280.3706 15.08846218 71907
STARLINK-4187           
1 52850U 22062W   23273.45682002 -.00001469  00000+0 -74242-4 0  9990
2 52850  53.2176  75.0155 0001308 100.7648 259.3492 15.08837488 71731
STARLINK-3809           
1 52851U 22062X   23273.70797879  .00001328  00000+0  10152-3 0  9999
2 52851  53.2180  63.8889 0001538  70.7570 289.3588 15.08845060 71904
STARLINK-4184           
1 52852U 22062Y   23273.71533623  .00001510  00000+0  11293-3 0  9996
2 52852  53.2175  63.8605 0001306  80.7106 279.4033 15.08846745 71900
STARLINK-4189           
1 52853U 22062Z   23273.69789286  .00001281  00000+0  98525-4 0  9991
2 52853  53.2175  63.9081 0001395  88.1208 271.9944 15.08843043 71909
STARLINK-4204           
1 52854U 22062AA  23273.43933963  .00001369  00000+0  10409-3 0  9998
2 52854  53.2171  65.0949 0001737  64.2880 295.8291 15.08842952 71866
STARLINK-4209           
1 52855U 22062AB  23273.69325690  .00002113  00000+0  15077-3 0  9993
2 52855  53.2167  63.9546 0001391  95.7528 264.3623 15.08846565 71905
STARLINK-4201           
1 52856U 22062AC  23274.25001157  .00543821  00000+0  33303-1 0  9992
2 52856  53.2177  61.4965 0001101  89.1570  15.3236 15.07390583 71983
STARLINK-4199           
1 52857U 22062AD  23273.68589941  .00000384  00000+0  42211-4 0  9994
2 52857  53.2166  63.9882 0001413  87.9027 272.2127 15.08846245 71903
STARLINK-4198           
1 52858U 22062AE  23273.91667824  .00037820  00000+0  23837-2 0  9994
2 52858  53.2172  62.9816 0001349  77.2939  37.0402 15.08809207 71943
STARLINK-4196           
1 52859U 22062AF  23273.74846019  .00000393  00000+0  42770-4 0  9995
2 52859  53.2182  63.7076 0001428  68.1999 291.9145 15.08848872 71918
STARLINK-4191           
1 52860U 22062AG  23273.42462227  .00000804  00000+0  68620-4 0  9996
2 52860  53.2176  65.1659 0001511  77.0790 283.0371 15.08842297 71869
STARLINK-4112           
1 52861U 22062AH  23273.73101534  .00000404  00000+0  43477-4 0  9991
2 52861  53.2168  63.7984 0001306  90.8088 269.3054 15.08843437 71919
STARLINK-4010           
1 52862U 22062AJ  23274.14221862  .00009178  00000+0  59391-3 0  9993
2 52862  53.2165  61.9416 0001361  85.4767 274.6381 15.08846575 71976
STARLINK-4270           
1 52863U 22062AK  23273.73742034  .00001140  00000+0  89672-4 0  9994
2 52863  53.2178  63.7618 0001231  82.5984 277.5148 15.08844094 71911
STARLINK-4267           
1 52864U 22062AL  23273.74109867  .00000713  00000+0  62883-4 0  9997
2 52864  53.2181  63.7422 0001324  83.0660 277.0482 15.08845432 71912
STARLINK-4274           
1 52865U 22062AM  23273.72637764 -.00000410  00000+0 -76780-5 0  9996
2 52865  53.2188  63.8147 0001485 108.8825 251.2329 15.08844216 71915
STARLINK-4272           
1 52866U 22062AN  23274.13117734  .00001950  00000+0  14057-3 0  9998
2 52866  53.2187  61.9905 0001484  78.8991 281.2168 15.08849168 71976
STARLINK-4126           
1 52867U 22062AP  23273.71901846  .00001007  00000+0  81321-4 0  9999
2 52867  53.2181  63.8453 0001409  90.1775 269.9379 15.08845930 71918
STARLINK-4261           
1 52868U 22062AQ  23273.73006273  .00001301  00000+0  99799-4 0  9997
2 52868  53.2164  63.8204 0001241  90.1247 269.9887 15.08843358 71918
STARLINK-4266           
1 52869U 22062AR  23273.71257901  .00001939  00000+0  13985-3 0  9991
2 52869  53.2183  53.8702 0001342  70.8587 289.2550 15.08846597 72041
STARLINK-4195           
1 52870U 22062AS  23273.45773344 -.00002304  00000+0 -12667-3 0  9993
2 52870  53.2184  65.0083 0001917 149.1041 211.0064 15.08839640 71878
STARLINK-4207           
1 52871U 22062AT  23273.70153842  .00001731  00000+0  12678-3 0  9990
2 52871  53.2189  53.9161 0001175  73.3387 286.7734 15.08846379 72044
STARLINK-4213           
1 52872U 22062AU  23273.70617290  .00002009  00000+0  14426-3 0  9995
2 52872  53.2184  53.8693 0001459  73.9904 286.1249 15.08846040 72045
STARLINK-4211           
1 52873U 22062AV  23274.09161795  .00001570  00000+0  11671-3 0  9994
2 52873  53.2183  52.1708 0001351  77.9296 282.1847 15.08845407 72106
STARLINK-4210           
1 52874U 22062AW  23273.70522015  .00000181  00000+0  29452-4 0  9992
2 52874  53.2184  53.9040 0001339  77.1360 282.9781 15.08848771 72041
STARLINK-4193           
1 52875U 22062AX  23273.69049652  .00001581  00000+0  11735-3 0  9991
2 52875  53.2165  53.9707 0001258  87.4930 272.6206 15.08848972 72049
STARLINK-4200           
1 52876U 22062AY  23273.69786016 -.00000037  00000+0  15754-4 0  9996
2 52876  53.2175  53.9375 0001377  85.5076 274.6074 15.08840215 72041
STARLINK-4214           
1 52877U 22062AZ  23273.66473875  .00000583  00000+0  54685-4 0  9991
2 52877  53.2182  54.0792 0001475  92.4301 267.6860 15.08844160 72040
STARLINK-4171           
1 52878U 22062BA  23274.08425833 -.00001667  00000+0 -86679-4 0  9994
2 52878  53.2183  52.2016 0001352  91.9460 268.1687 15.08835114 72104
STARLINK-4139           
1 52879U 22062BB  23273.65369946  .00001697  00000+0  12465-3 0  9991
2 52879  53.2178  54.1352 0001219  81.6507 278.4624 15.08844295 72041
STARLINK-4186           
1 52880U 22062BC  23273.39242281  .00000839  00000+0  70796-4 0  9995
2 52880  53.2181  55.3130 0001731  57.3765 302.7394 15.08842207 72001
STARLINK-4192           
1 52881U 22062BD  23273.69441996  .00000954  00000+0  81286-4 0  9997
2 52881  53.2192  54.3050 0001403  92.9586 267.1566 15.07215127 72049
STARLINK-4181           
1 52882U 22062BE  23274.25001157  .00078194  00000+0  48806-2 0  9992
2 52882  53.2169  51.5069 0001421  96.9864 258.7305 15.08814029 72130
GLOBALSTAR M087         
1 52888U 22064A   23274.07140517 -.00000108  00000+0  37973-4 0  9990
2 52888  51.9772  35.3760 0010069  66.9066 293.2895 13.37553447 62713
PVSAT                   
1 52894U 22065A   23273.36463941  .00000732  00000+0  16926-3 0  9994
2 52894  98.0875  54.5971 0008705 219.5268 140.5297 14.57915523 67891
KSLV-II DUMMY           
1 52895U 22065B   23273.39666622  .00000158  00000+0  43935-4 0  9992
2 52895  98.0899  55.1121 0007198 237.3944 122.6561 14.58264512 67932
STEP CUBE LAB-II        
1 52897U 22065D   23274.12397470  .00001730  00000+0  37511-3 0  9997
2 52897  98.0857  56.0480 0008032 239.1823 120.8587 14.59361139 66885
RANDEV                  
1 52898U 22065E   23274.16574698  .00002264  00000+0  48660-3 0  9991
2 52898  98.0854  56.1419 0007311 240.9315 119.1153 14.59481229 66615
SNUGLITE-II             
1 52899U 22065F   23274.14373252  .00002478  00000+0  53001-3 0  9995
2 52899  98.0850  56.1495 0006867 241.2360 118.8150 14.59624824 66315
MIMAN                   
1 52900U 22065G   23272.95801963  .00001264  00000+0  27890-3 0  9999
2 52900  98.0865  54.7899 0006752 238.4864 121.5677 14.58976378 65751
